{
  "type": "FeatureCollection",
  "features": [
    {
      "type": "Feature",
      "properties": {
        "norad_id": 41599,
        "name": "CARTOSAT-2C",
        "group": "resource",
        "lat": 64.53386889022603,
        "lon": 36.39634537732114,
        "alt_km": 495.3968467102859,
        "timestamp": "2025-12-21T05:44:51.233158+00:00",
        "meta_object_name": "CARTOSAT-2C",
        "meta_object_id": "2016-040A",
        "meta_epoch": "2025-12-20T23:08:14.237088",
        "meta_mean_motion": 15.1918087,
        "meta_eccentricity": 0.00110529,
        "meta_inclination": 97.4761,
        "meta_ra_of_asc_node": 52.1297,
        "meta_arg_of_pericenter": 37.3595,
        "meta_mean_anomaly": 322.8406,
        "meta_ephemeris_type": 0,
        "meta_classification_type": "U",
        "meta_norad_cat_id": 41599,
        "meta_element_set_no": 999,
        "meta_rev_at_epoch": 52665,
        "meta_bstar": 9.2622629e-05,
        "meta_mean_motion_dot": 1.882e-05,
        "meta_mean_motion_ddot": 0,
        "tle_line1": "1 41599U 16040A   25354.96405367  .00001882  00000+0  92623-4 0  9992",
        "tle_line2": "2 41599  97.4761  52.1297 0011052  37.3595 322.8406 15.19180870526650"
      },
      "geometry": {
        "type": "Point",
        "coordinates": [
          36.39634537732114,
          64.53386889022603
        ]
      }
    },
    {
      "type": "Feature",
      "properties": {
        "norad_id": 41601,
        "name": "SKYSAT-C1",
        "group": "resource",
        "lat": 8.291829742188774,
        "lon": -147.20248321131123,
        "alt_km": 470.64746258934974,
        "timestamp": "2025-12-21T05:44:51.233180+00:00",
        "meta_object_name": "SKYSAT-C1",
        "meta_object_id": "2016-040C",
        "meta_epoch": "2025-12-20T13:19:58.535040",
        "meta_mean_motion": 15.32720909,
        "meta_eccentricity": 0.000147,
        "meta_inclination": 96.9811,
        "meta_ra_of_asc_node": 31.1288,
        "meta_arg_of_pericenter": 346.7095,
        "meta_mean_anomaly": 13.4109,
        "meta_ephemeris_type": 0,
        "meta_classification_type": "U",
        "meta_norad_cat_id": 41601,
        "meta_element_set_no": 999,
        "meta_rev_at_epoch": 53047,
        "meta_bstar": 0.00018789,
        "meta_mean_motion_dot": 5.865e-05,
        "meta_mean_motion_ddot": 0,
        "tle_line1": "1 41601U 16040C   25354.55553860  .00005865  00000+0  18789-3 0  9998",
        "tle_line2": "2 41601  96.9811  31.1288 0001470 346.7095  13.4109 15.32720909530472"
      },
      "geometry": {
        "type": "Point",
        "coordinates": [
          -147.20248321131123,
          8.291829742188774
        ]
      }
    },
    {
      "type": "Feature",
      "properties": {
        "norad_id": 41603,
        "name": "LAPAN-A3",
        "group": "resource",
        "lat": -75.79558853532099,
        "lon": 22.182891701766206,
        "alt_km": 472.51715628304373,
        "timestamp": "2025-12-21T05:44:51.233192+00:00",
        "meta_object_name": "LAPAN-A3",
        "meta_object_id": "2016-040E",
        "meta_epoch": "2025-12-20T22:14:45.203712",
        "meta_mean_motion": 15.31612272,
        "meta_eccentricity": 0.0008907,
        "meta_inclination": 97.1424,
        "meta_ra_of_asc_node": 352.1854,
        "meta_arg_of_pericenter": 300.5873,
        "meta_mean_anomaly": 59.449,
        "meta_ephemeris_type": 0,
        "meta_classification_type": "U",
        "meta_norad_cat_id": 41603,
        "meta_element_set_no": 999,
        "meta_rev_at_epoch": 52751,
        "meta_bstar": 9.8069164e-05,
        "meta_mean_motion_dot": 2.922e-05,
        "meta_mean_motion_ddot": 0,
        "tle_line1": "1 41603U 16040E   25354.92691208  .00002922  00000+0  98069-4 0  9991",
        "tle_line2": "2 41603  97.1424 352.1854 0008907 300.5873  59.4490 15.31612272527512"
      },
      "geometry": {
        "type": "Point",
        "coordinates": [
          22.182891701766206,
          -75.79558853532099
        ]
      }
    },
    {
      "type": "Feature",
      "properties": {
        "norad_id": 41604,
        "name": "BIROS",
        "group": "resource",
        "lat": 48.095894846432486,
        "lon": -145.01799118296242,
        "alt_km": 287.5376592552939,
        "timestamp": "2025-12-21T05:44:51.233203+00:00",
        "meta_object_name": "BIROS",
        "meta_object_id": "2016-040F",
        "meta_epoch": "2025-12-20T21:39:33.242976",
        "meta_mean_motion": 15.92771891,
        "meta_eccentricity": 0.00036601,
        "meta_inclination": 97.069,
        "meta_ra_of_asc_node": 26.6808,
        "meta_arg_of_pericenter": 134.6897,
        "meta_mean_anomaly": 225.4677,
        "meta_ephemeris_type": 0,
        "meta_classification_type": "U",
        "meta_norad_cat_id": 41604,
        "meta_element_set_no": 999,
        "meta_rev_at_epoch": 53002,
        "meta_bstar": 0.00052681511,
        "meta_mean_motion_dot": 0.00179923,
        "meta_mean_motion_ddot": 1.4046561e-05,
        "tle_line1": "1 41604U 16040F   25354.90246809  .00179923  14047-4  52682-3 0  9990",
        "tle_line2": "2 41604  97.0690  26.6808 0003660 134.6897 225.4677 15.92771891530024"
      },
      "geometry": {
        "type": "Point",
        "coordinates": [
          -145.01799118296242,
          48.095894846432486
        ]
      }
    },
    {
      "type": "Feature",
      "properties": {
        "norad_id": 41727,
        "name": "GAOFEN-3",
        "group": "resource",
        "lat": -29.541074120607025,
        "lon": 175.8906262099598,
        "alt_km": 757.8553223978279,
        "timestamp": "2025-12-21T05:44:51.233215+00:00",
        "meta_object_name": "GAOFEN-3",
        "meta_object_id": "2016-049A",
        "meta_epoch": "2025-12-20T23:46:57.633312",
        "meta_mean_motion": 14.42215089,
        "meta_eccentricity": 0.00012178,
        "meta_inclination": 98.4031,
        "meta_ra_of_asc_node": 0.4513,
        "meta_arg_of_pericenter": 57.7746,
        "meta_mean_anomaly": 302.3561,
        "meta_ephemeris_type": 0,
        "meta_classification_type": "U",
        "meta_norad_cat_id": 41727,
        "meta_element_set_no": 999,
        "meta_rev_at_epoch": 49296,
        "meta_bstar": -1.8621788e-05,
        "meta_mean_motion_dot": -1.05e-06,
        "meta_mean_motion_ddot": 0,
        "tle_line1": "1 41727U 16049A   25354.99094483 -.00000105  00000+0 -18622-4 0  9996",
        "tle_line2": "2 41727  98.4031   0.4513 0001217  57.7746 302.3561 14.42215089492964"
      },
      "geometry": {
        "type": "Point",
        "coordinates": [
          175.8906262099598,
          -29.541074120607025
        ]
      }
    },
    {
      "type": "Feature",
      "properties": {
        "norad_id": 41771,
        "name": "SKYSAT-C4",
        "group": "resource",
        "lat": 42.66742407208463,
        "lon": 13.572153666642798,
        "alt_km": 435.1979483865134,
        "timestamp": "2025-12-21T05:44:51.233225+00:00",
        "meta_object_name": "SKYSAT-C4",
        "meta_object_id": "2016-058B",
        "meta_epoch": "2025-12-20T12:26:05.053920",
        "meta_mean_motion": 15.42456678,
        "meta_eccentricity": 0.0002175,
        "meta_inclination": 96.936,
        "meta_ra_of_asc_node": 19.3283,
        "meta_arg_of_pericenter": 127.8827,
        "meta_mean_anomaly": 232.2618,
        "meta_ephemeris_type": 0,
        "meta_classification_type": "U",
        "meta_norad_cat_id": 41771,
        "meta_element_set_no": 999,
        "meta_rev_at_epoch": 51787,
        "meta_bstar": 0.00023302,
        "meta_mean_motion_dot": 0.00010007,
        "meta_mean_motion_ddot": 0,
        "tle_line1": "1 41771U 16058B   25354.51811405  .00010007  00000+0  23302-3 0  9994",
        "tle_line2": "2 41771  96.9360  19.3283 0002175 127.8827 232.2618 15.42456678517871"
      },
      "geometry": {
        "type": "Point",
        "coordinates": [
          13.572153666642798,
          42.66742407208463
        ]
      }
    },
    {
      "type": "Feature",
      "properties": {
        "norad_id": 41772,
        "name": "SKYSAT-C5",
        "group": "resource",
        "lat": 64.09644841981196,
        "lon": 23.819727660575136,
        "alt_km": 460.21642756230176,
        "timestamp": "2025-12-21T05:44:51.233236+00:00",
        "meta_object_name": "SKYSAT-C5",
        "meta_object_id": "2016-058C",
        "meta_epoch": "2025-12-20T16:56:26.242656",
        "meta_mean_motion": 15.34007907,
        "meta_eccentricity": 0.00037931,
        "meta_inclination": 97.0746,
        "meta_ra_of_asc_node": 38.1251,
        "meta_arg_of_pericenter": 253.8673,
        "meta_mean_anomaly": 106.2153,
        "meta_ephemeris_type": 0,
        "meta_classification_type": "U",
        "meta_norad_cat_id": 41772,
        "meta_element_set_no": 999,
        "meta_rev_at_epoch": 51638,
        "meta_bstar": 0.00018200312,
        "meta_mean_motion_dot": 5.914e-05,
        "meta_mean_motion_ddot": 0,
        "tle_line1": "1 41772U 16058C   25354.70585929  .00005914  00000+0  18200-3 0  9997",
        "tle_line2": "2 41772  97.0746  38.1251 0003793 253.8673 106.2153 15.34007907516389"
      },
      "geometry": {
        "type": "Point",
        "coordinates": [
          23.819727660575136,
          64.09644841981196
        ]
      }
    }
  ]
}